*******************************************************************************
JPL/HORIZONS                317 Roxane (A891 RD)           2023-Sep-04 11:05:38
Rec #:     317 (+COV) Soln.date: 2023-Aug-23_07:33:57   # obs: 4273 (1891-2023)
 
IAU76/J2000 helio. ecliptic osc. elements (au, days, deg., period=Julian yrs):
 
  EPOCH=  2457211.5 ! 2015-Jul-08.00 (TDB)         Residual RMS= .32304
   EC= .08588448031045393  QR= 2.090018731639605   TP= 2457462.8257072605
   OM= 151.3826299933297   W=  187.035284052306    IN= 1.765625260171373
   A= 2.286383598814099    MA= 288.3498105321651   ADIST= 2.482748465988594
   PER= 3.45726            N= .28508898            ANGMOM= .025914829
   DAN= 2.48099            DDN= 2.09126            L= 338.4146073
   B= -.216221             MOID= 1.07990003        TP= 2016-Mar-15.3257072605
 
Asteroid physical parameters (km, seconds, rotational period in hours):
   GM= n.a.                RAD= 9.324              ROTPER= 8.169
   H= 9.82                 G= .150                 B-V= .694
                           ALBEDO= .926            STYP= Xe

ASTEROID comments: 
1: soln ref.= JPL#64, OCC=0
2: source=ORB
*******************************************************************************


*******************************************************************************
Ephemeris / API_USER Mon Sep  4 11:05:38 2023 Pasadena, USA      / Horizons
*******************************************************************************
Target body name: 317 Roxane (A891 RD)            {source: JPL#64}
Center body name: Solar System Barycenter (0)     {source: DE441}
Center-site name: BODY CENTER
*******************************************************************************
Start time      : A.D. 2023-Aug-12 00:00:00.0000 TDB
Stop  time      : A.D. 2023-Aug-13 00:00:00.0000 TDB
Step-size       : 2880 minutes
*******************************************************************************
Center geodetic : 0.0, 0.0, 0.0                   {E-lon(deg),Lat(deg),Alt(km)}
Center cylindric: 0.0, 0.0, 0.0                   {E-lon(deg),Dxy(km),Dz(km)}
Center radii    : (undefined)
Small perturbers: Yes                             {source: SB441-N16}
Output units    : KM-S
Calendar mode   : Mixed Julian/Gregorian
Output type     : GEOMETRIC cartesian states
Output format   : 2 (position and velocity)
Reference frame : Ecliptic of J2000.0
*******************************************************************************
Initial IAU76/J2000 heliocentric ecliptic osculating elements (au, days, deg.):
  EPOCH=  2457211.5 ! 2015-Jul-08.00 (TDB)         Residual RMS= .32304        
   EC= .08588448031045393  QR= 2.090018731639605   TP= 2457462.8257072605      
   OM= 151.3826299933297   W=  187.035284052306    IN= 1.765625260171373       
  Equivalent ICRF heliocentric cartesian coordinates (au, au/d):
   X=-4.979144010559858E-01  Y=-2.029545013745270E+00  Z=-8.075098197321066E-01
  VX= 1.149228957187656E-02 VY=-1.445617854731254E-03 VZ=-7.636103051692981E-04
Asteroid physical parameters (km, seconds, rotational period in hours):        
   GM= n.a.                RAD= 9.324              ROTPER= 8.169               
   H= 9.82                 G= .150                 B-V= .694                   
                           ALBEDO= .926            STYP= Xe                    
*******************************************************************************
JDTDB
   X     Y     Z
   VX    VY    VZ
*******************************************************************************
$$SOE
2460168.500000000 = A.D. 2023-Aug-12 00:00:00.0000 TDB 
 X = 2.558881438876806E+08 Y = 1.988226834011714E+08 Z =-9.157505271695457E+06
 VX=-1.147757282351523E+01 VY= 1.719008776408825E+01 VZ=-2.957076848503482E-01
$$EOE
*******************************************************************************
 
TIME

  Barycentric Dynamical Time ("TDB" or T_eph) output was requested. This
continuous coordinate time is equivalent to the relativistic proper time
of a clock at rest in a reference frame co-moving with the solar system
barycenter but outside the system's gravity well. It is the independent
variable in the solar system relativistic equations of motion.

  TDB runs at a uniform rate of one SI second per second and is independent
of irregularities in Earth's rotation.
 
CALENDAR SYSTEM

  Mixed calendar mode was active such that calendar dates after AD 1582-Oct-15
(if any) are in the modern Gregorian system. Dates prior to 1582-Oct-5 (if any)
are in the Julian calendar system, which is automatically extended for dates
prior to its adoption on 45-Jan-1 BC.  The Julian calendar is useful for
matching historical dates. The Gregorian calendar more accurately corresponds
to the Earth's orbital motion and seasons. A "Gregorian-only" calendar mode is
available if such physical events are the primary interest.

REFERENCE FRAME AND COORDINATES

  Ecliptic at the standard reference epoch

    Reference epoch: J2000.0
    X-Y plane: adopted Earth orbital plane at the reference epoch
               Note: IAU76 obliquity of 84381.448 arcseconds wrt ICRF X-Y plane
    X-axis   : ICRF
    Z-axis   : perpendicular to the X-Y plane in the directional (+ or -) sense
               of Earth's north pole at the reference epoch.

  Symbol meaning:

    JDTDB    Julian Day Number, Barycentric Dynamical Time
      X      X-component of position vector (km)
      Y      Y-component of position vector (km)
      Z      Z-component of position vector (km)
      VX     X-component of velocity vector (km/sec)                           
      VY     Y-component of velocity vector (km/sec)                           
      VZ     Z-component of velocity vector (km/sec)                           

ABERRATIONS AND CORRECTIONS

 Geometric state vectors have NO corrections or aberrations applied.

Computations by ...

    Solar System Dynamics Group, Horizons On-Line Ephemeris System
    4800 Oak Grove Drive, Jet Propulsion Laboratory
    Pasadena, CA  91109   USA

    General site: https://ssd.jpl.nasa.gov/
    Mailing list: https://ssd.jpl.nasa.gov/email_list.html
    System news : https://ssd.jpl.nasa.gov/horizons/news.html
    User Guide  : https://ssd.jpl.nasa.gov/horizons/manual.html
    Connect     : browser        https://ssd.jpl.nasa.gov/horizons/app.html#/x
                  API            https://ssd-api.jpl.nasa.gov/doc/horizons.html
                  command-line   telnet ssd.jpl.nasa.gov 6775
                  e-mail/batch   https://ssd.jpl.nasa.gov/ftp/ssd/hrzn_batch.txt
                  scripts        https://ssd.jpl.nasa.gov/ftp/ssd/SCRIPTS
    Author      : Jon.D.Giorgini@jpl.nasa.gov
*******************************************************************************
